BEESAT-4                
1 41619U 16040W   21058.11244820  .00002452  00000-0  10103-3 0  9991
2 41619  97.2856 117.2439 0010845  11.0209 349.1264 15.24972588248192
CAS-2T & KS-1Q          
1 41847U 16066G   21057.57657969  .00000204  00000-0  41111-4 0  9990
2 41847  98.6179 116.1684 0365343 191.1226 168.1725 14.38150930225945
NAYIF-1 (EO-88)         
1 42017U 17008BX  21057.61786330  .00003396  00000-0  12863-3 0  9993
2 42017  97.3294 127.1777 0007383 132.5946 227.5917 15.27567681224338
ZHUHAI-1 02 (CAS-4B)    
1 42759U 17034B   21058.09817525  .00000580  00000-0  48349-4 0  9990
2 42759  43.0176  67.7211 0009367 202.1961 220.7153 15.10086791204464
ZHUHAI-1 01 (CAS-4A)    
1 42761U 17034D   21058.10347068  .00000598  00000-0  49338-4 0  9993
2 42761  43.0178  66.8206 0009655 202.9786 264.9773 15.10167923204461
MAX VALIER SAT          
1 42778U 17036P   21057.89039963  .00001564  00000-0  68832-4 0  9994
2 42778  97.2714 110.0558 0011478 198.4121 161.6703 15.23246885204450
RADFXSAT (FOX-1B)       
1 43017U 17073E   21057.54881036  .00001378  00000-0  11233-3 0  9995
2 43017  97.7152 325.8991 0254481 302.3627  55.3182 14.79347721176724
FOX-1D (AO-92)          
1 43137U 18004AC  21057.64375119  .00002254  00000-0  93593-4 0  9998
2 43137  97.4177 132.7840 0007560 235.0024 125.0504 15.24848468173776
DIWATA-2B               
1 43678U 18084H   21058.17844237  .00000521  00000-0  57420-4 0  9991
2 43678  97.9066 183.0064 0011334  60.2290 300.0065 14.91714853126994
ES'HAIL 2               
1 43700U 18090A   21057.87827432  .00000138  00000-0  00000-0 0  9990
2 43700   0.0241 153.8094 0002325 218.1731 126.9303  1.00268643  8268
FOX-1CLIFF (AO-95)      
1 43770U 18099N   21058.16730050  .00000217  00000-0  24885-4 0  9997
2 43770  97.6772 130.7375 0015936  69.0388 291.2537 14.95210067121979
ITASAT 1                
1 43786U 18099AE  21057.84107847  .00000006  00000-0  57371-5 0  9993
2 43786  97.6789 131.0191 0016452  63.6002 296.6905 14.95518770121959
JY1SAT (JO-97)          
1 43803U 18099AX  21058.15680371  .00000737  00000-0  71135-4 0  9990
2 43803  97.6752 131.0952 0016488  63.1377 297.1528 14.95742579122003
UWE-4                   
1 43880U 18111E   21057.67952289  .00000816  00000-0  76320-4 0  9995
2 43880  97.6935 327.2703 0013596 112.8913 247.3746 14.96736295118518
PSAT2 (NO-104)          
1 44354U 19036R   21057.61206014  .00022168  00000-0  30593-3 0  9996
2 44354  28.5285 144.3065 0339583 156.9759 204.6449 15.09862575 92185
BRICSAT2 (NO-103)       
1 44355U 19036S   21057.83059680  .00044038  00000-0  53430-3 0  9991
2 44355  28.5282 113.6234 0293461 206.8950 151.6157 15.21746728 92511
JAISAT-1                
1 44419U 19038F   21057.83915759  .00002360  00000-0  13529-3 0  9999
2 44419  97.5747  23.0702 0020561 338.2122  21.8233 15.13421087 91069
DUCHIFAT-3              
1 44854U 19089C   21058.11753224  .00000832  00000-0  73104-4 0  9995
2 44854  36.9682  33.0682 0009138 321.5503  38.4581 14.99346255 66530
RS-44 & BREEZE-KM R/B   
1 44909U 19096E   21057.84260364 -.00000006  00000-0 -65083-4 0  9993
2 44909  82.5243 186.2931 0217127 352.0154   7.7510 12.79708526 54693
ORBITAL FACTORY 2 (OF-2)
1 45113U 19071C   21057.81938425  .00005077  00000-0  15861-3 0  9990
2 45113  51.6412 213.5945 0011833 252.6385 107.3303 15.34879883 60178
HUSKYSAT-1              
1 45119U 19071J   21057.90012637  .00004608  00000-0  14460-3 0  9997
2 45119  51.6410 212.6322 0011211 249.0498 110.9285 15.34974492 60188
BY70-2                  
1 45857U 20042B   21058.21009830  .00001558  00000-0  22971-3 0  9999
2 45857  97.9918 135.0967 0011132 200.3402 159.7377 14.76719796 35277
SALSAT                  
1 46495U 20068K   21057.91005710  .00000898  00000-0  70496-4 0  9997
2 46495  97.6836 356.1270 0017729  83.3320 276.9925 15.03348501 22721
BY70-3                  
1 46839U 20079N   21058.21719693  .00004350  00000-0  13928-3 0  9990
2 46839  97.2522 134.2684 0006074 231.2662 191.2067 15.32897019 17319
RADFXSAT-2 (AO-109)     
1 47311U 21002C   21057.88850852  .00001418  00000-0  74709-4 0  9995
2 47311  60.6873 344.9733 0018157 329.7496  30.2540 15.21285223  6048
